CCSDS_OMM_VERS = 2.0
CREATION_DATE  = 
ORIGINATOR     = 

OBJECT_NAME    = SL-14 R/B
OBJECT_ID      = 1986-046B
CENTER_NAME    = EARTH
REF_FRAME      = TEME
TIME_SYSTEM    = UTC
MEAN_ELEMENT_THEORY = SGP/SGP4

EPOCH          = 2026-01-30T22:52:54.059808
MEAN_MOTION    = 14.85551710
ECCENTRICITY   = .00229499
INCLINATION    = 82.4828
RA_OF_ASC_NODE = 115.8394
ARG_OF_PERICENTER = 356.5733
MEAN_ANOMALY   = 3.5322

EPHEMERIS_TYPE = 0
CLASSIFICATION_TYPE = U
NORAD_CAT_ID   = 16792
ELEMENT_SET_NO = 999
REV_AT_EPOCH   = 12080
BSTAR          = .64433738E-4
MEAN_MOTION_DOT = .583E-5
MEAN_MOTION_DDOT = 0

CCSDS_OMM_VERS = 2.0
CREATION_DATE  = 
ORIGINATOR     = 

OBJECT_NAME    = SL-14 R/B
OBJECT_ID      = 1986-055B
CENTER_NAME    = EARTH
REF_FRAME      = TEME
TIME_SYSTEM    = UTC
MEAN_ELEMENT_THEORY = SGP/SGP4

EPOCH          = 2026-01-30T19:49:02.189856
MEAN_MOTION    = 14.85599404
ECCENTRICITY   = .00203861
INCLINATION    = 82.5227
RA_OF_ASC_NODE = 162.2498
ARG_OF_PERICENTER = 97.0727
MEAN_ANOMALY   = 18.7802

EPHEMERIS_TYPE = 0
CLASSIFICATION_TYPE = U
NORAD_CAT_ID   = 16882
ELEMENT_SET_NO = 999
REV_AT_EPOCH   = 11374
BSTAR          = .85461472E-4
MEAN_MOTION_DOT = .766E-5
MEAN_MOTION_DDOT = 0

CCSDS_OMM_VERS = 2.0
CREATION_DATE  = 
ORIGINATOR     = 

OBJECT_NAME    = AJISAI (EGS)
OBJECT_ID      = 1986-061A
CENTER_NAME    = EARTH
REF_FRAME      = TEME
TIME_SYSTEM    = UTC
MEAN_ELEMENT_THEORY = SGP/SGP4

EPOCH          = 2026-01-30T23:34:22.414368
MEAN_MOTION    = 12.44515382
ECCENTRICITY   = .00112742
INCLINATION    = 50.0064
RA_OF_ASC_NODE = 209.2981
ARG_OF_PERICENTER = 190.0061
MEAN_ANOMALY   = 288.5275

EPHEMERIS_TYPE = 0
CLASSIFICATION_TYPE = U
NORAD_CAT_ID   = 16908
ELEMENT_SET_NO = 999
REV_AT_EPOCH   = 46330
BSTAR          = .50528922E-4
MEAN_MOTION_DOT = -.9E-6
MEAN_MOTION_DDOT = 0

CCSDS_OMM_VERS = 2.0
CREATION_DATE  = 
ORIGINATOR     = 

OBJECT_NAME    = COSMOS 1812
OBJECT_ID      = 1987-003A
CENTER_NAME    = EARTH
REF_FRAME      = TEME
TIME_SYSTEM    = UTC
MEAN_ELEMENT_THEORY = SGP/SGP4

EPOCH          = 2026-01-30T15:05:43.840032
MEAN_MOTION    = 15.90389269
ECCENTRICITY   = .00007662
INCLINATION    = 82.4787
RA_OF_ASC_NODE = 238.5812
ARG_OF_PERICENTER = 13.2527
MEAN_ANOMALY   = 346.8766

EPHEMERIS_TYPE = 0
CLASSIFICATION_TYPE = U
NORAD_CAT_ID   = 17295
ELEMENT_SET_NO = 999
REV_AT_EPOCH   = 13838
BSTAR          = .70935279E-3
MEAN_MOTION_DOT = .215303E-2
MEAN_MOTION_DDOT = .1545597E-4

CCSDS_OMM_VERS = 2.0
CREATION_DATE  = 
ORIGINATOR     = 

OBJECT_NAME    = SL-14 R/B
OBJECT_ID      = 1987-024B
CENTER_NAME    = EARTH
REF_FRAME      = TEME
TIME_SYSTEM    = UTC
MEAN_ELEMENT_THEORY = SGP/SGP4

EPOCH          = 2026-01-30T17:32:58.085376
MEAN_MOTION    = 14.86093123
ECCENTRICITY   = .00189524
INCLINATION    = 82.5300
RA_OF_ASC_NODE = 128.4355
ARG_OF_PERICENTER = 30.6968
MEAN_ANOMALY   = 329.5352

EPHEMERIS_TYPE = 0
CLASSIFICATION_TYPE = U
NORAD_CAT_ID   = 17567
ELEMENT_SET_NO = 999
REV_AT_EPOCH   = 8249
BSTAR          = .74009935E-4
MEAN_MOTION_DOT = .674E-5
MEAN_MOTION_DDOT = 0

CCSDS_OMM_VERS = 2.0
CREATION_DATE  = 
ORIGINATOR     = 

OBJECT_NAME    = COSMOS 1833
OBJECT_ID      = 1987-027A
CENTER_NAME    = EARTH
REF_FRAME      = TEME
TIME_SYSTEM    = UTC
MEAN_ELEMENT_THEORY = SGP/SGP4

EPOCH          = 2026-01-30T11:48:59.450400
MEAN_MOTION    = 14.13053583
ECCENTRICITY   = .00247131
INCLINATION    = 70.9200
RA_OF_ASC_NODE = 46.2978
ARG_OF_PERICENTER = 265.3252
MEAN_ANOMALY   = 94.5046

EPHEMERIS_TYPE = 0
CLASSIFICATION_TYPE = U
NORAD_CAT_ID   = 17589
ELEMENT_SET_NO = 999
REV_AT_EPOCH   = 492
BSTAR          = .12065039E-3
MEAN_MOTION_DOT = .178E-5
MEAN_MOTION_DDOT = 0

CCSDS_OMM_VERS = 2.0
CREATION_DATE  = 
ORIGINATOR     = 

OBJECT_NAME    = SL-16 R/B
OBJECT_ID      = 1987-027B
CENTER_NAME    = EARTH
REF_FRAME      = TEME
TIME_SYSTEM    = UTC
MEAN_ELEMENT_THEORY = SGP/SGP4

EPOCH          = 2026-01-30T22:18:33.281568
MEAN_MOTION    = 14.17162299
ECCENTRICITY   = .00056058
INCLINATION    = 71.0045
RA_OF_ASC_NODE = 356.0622
ARG_OF_PERICENTER = 204.3082
MEAN_ANOMALY   = 155.7778

EPHEMERIS_TYPE = 0
CLASSIFICATION_TYPE = U
NORAD_CAT_ID   = 17590
ELEMENT_SET_NO = 999
REV_AT_EPOCH   = 999
BSTAR          = .135186E-3
MEAN_MOTION_DOT = .225E-5
MEAN_MOTION_DDOT = 0

CCSDS_OMM_VERS = 2.0
CREATION_DATE  = 
ORIGINATOR     = 

OBJECT_NAME    = SL-14 R/B
OBJECT_ID      = 1987-038B
CENTER_NAME    = EARTH
REF_FRAME      = TEME
TIME_SYSTEM    = UTC
MEAN_ELEMENT_THEORY = SGP/SGP4

EPOCH          = 2026-01-30T21:48:34.100928
MEAN_MOTION    = 14.85327716
ECCENTRICITY   = .00178131
INCLINATION    = 82.5040
RA_OF_ASC_NODE = 332.3884
ARG_OF_PERICENTER = 291.6322
MEAN_ANOMALY   = 68.2997

EPHEMERIS_TYPE = 0
CLASSIFICATION_TYPE = U
NORAD_CAT_ID   = 17912
ELEMENT_SET_NO = 999
REV_AT_EPOCH   = 7362
BSTAR          = .7723438E-4
MEAN_MOTION_DOT = .689E-5
MEAN_MOTION_DDOT = 0

CCSDS_OMM_VERS = 2.0
CREATION_DATE  = 
ORIGINATOR     = 

OBJECT_NAME    = COSMOS 1844
OBJECT_ID      = 1987-041A
CENTER_NAME    = EARTH
REF_FRAME      = TEME
TIME_SYSTEM    = UTC
MEAN_ELEMENT_THEORY = SGP/SGP4

EPOCH          = 2026-01-30T15:19:32.976768
MEAN_MOTION    = 14.14534916
ECCENTRICITY   = .00285728
INCLINATION    = 70.8984
RA_OF_ASC_NODE = 114.4384
ARG_OF_PERICENTER = 79.0026
MEAN_ANOMALY   = 281.4307

EPHEMERIS_TYPE = 0
CLASSIFICATION_TYPE = U
NORAD_CAT_ID   = 17973
ELEMENT_SET_NO = 999
REV_AT_EPOCH   = 99820
BSTAR          = .34276535E-4
MEAN_MOTION_DOT = .18E-6
MEAN_MOTION_DDOT = 0

CCSDS_OMM_VERS = 2.0
CREATION_DATE  = 
ORIGINATOR     = 

OBJECT_NAME    = SL-14 R/B
OBJECT_ID      = 1987-055B
CENTER_NAME    = EARTH
REF_FRAME      = TEME
TIME_SYSTEM    = UTC
MEAN_ELEMENT_THEORY = SGP/SGP4

EPOCH          = 2026-01-30T23:01:44.957568
MEAN_MOTION    = 14.85581059
ECCENTRICITY   = .00217597
INCLINATION    = 82.4983
RA_OF_ASC_NODE = 24.5888
ARG_OF_PERICENTER = 135.2046
MEAN_ANOMALY   = 225.0932

EPHEMERIS_TYPE = 0
CLASSIFICATION_TYPE = U
NORAD_CAT_ID   = 18153
ELEMENT_SET_NO = 999
REV_AT_EPOCH   = 6433
BSTAR          = .66113309E-4
MEAN_MOTION_DOT = .598E-5
MEAN_MOTION_DDOT = 0

CCSDS_OMM_VERS = 2.0
CREATION_DATE  = 
ORIGINATOR     = 

OBJECT_NAME    = COSMOS 1867
OBJECT_ID      = 1987-060A
CENTER_NAME    = EARTH
REF_FRAME      = TEME
TIME_SYSTEM    = UTC
MEAN_ELEMENT_THEORY = SGP/SGP4

EPOCH          = 2026-01-30T10:28:33.588768
MEAN_MOTION    = 14.31496425
ECCENTRICITY   = .00140198
INCLINATION    = 65.0103
RA_OF_ASC_NODE = 53.8309
ARG_OF_PERICENTER = 275.7799
MEAN_ANOMALY   = 84.1687

EPHEMERIS_TYPE = 0
CLASSIFICATION_TYPE = U
NORAD_CAT_ID   = 18187
ELEMENT_SET_NO = 999
REV_AT_EPOCH   = 1446
BSTAR          = .37363318E-4
MEAN_MOTION_DOT = -.1E-7
MEAN_MOTION_DDOT = 0

CCSDS_OMM_VERS = 2.0
CREATION_DATE  = 
ORIGINATOR     = 

OBJECT_NAME    = SL-14 R/B
OBJECT_ID      = 1988-001B
CENTER_NAME    = EARTH
REF_FRAME      = TEME
TIME_SYSTEM    = UTC
MEAN_ELEMENT_THEORY = SGP/SGP4

EPOCH          = 2026-01-30T22:51:18.639648
MEAN_MOTION    = 14.85482066
ECCENTRICITY   = .00182647
INCLINATION    = 82.5103
RA_OF_ASC_NODE = 230.8573
ARG_OF_PERICENTER = 8.0469
MEAN_ANOMALY   = 352.1037

EPHEMERIS_TYPE = 0
CLASSIFICATION_TYPE = U
NORAD_CAT_ID   = 18749
ELEMENT_SET_NO = 999
REV_AT_EPOCH   = 3642
BSTAR          = .60339012E-4
MEAN_MOTION_DOT = .546E-5
MEAN_MOTION_DDOT = 0

