SL-14 R/B               
1 16792U 86046B   26030.95340347  .00000583  00000+0  64434-4 0  9995
2 16792  82.4828 115.8394 0022949 356.5733   3.5322 14.85551710120801
SL-14 R/B               
1 16882U 86055B   26030.82571979  .00000766  00000+0  85461-4 0  9994
2 16882  82.5227 162.2498 0020386  97.0727  18.7802 14.85599404113747
AJISAI (EGS)            
1 16908U 86061A   26030.98220387 -.00000090  00000+0  50529-4 0  9999
2 16908  50.0064 209.2981 0011274 190.0061 288.5275 12.44515382463302
COSMOS 1812             
1 17295U 87003A   26030.62897963  .00215303  15456-4  70935-3 0  9999
2 17295  82.4787 238.5812 0000766  13.2527 346.8766 15.90389269138385
SL-14 R/B               
1 17567U 87024B   26030.73122784  .00000674  00000+0  74010-4 0  9994
2 17567  82.5300 128.4355 0018952  30.6968 329.5352 14.86093123 82490
COSMOS 1833             
1 17589U 87027A   26030.49235475  .00000178  00000+0  12065-3 0  9996
2 17589  70.9200  46.2978 0024713 265.3252  94.5046 14.13053583  4924
SL-16 R/B               
1 17590U 87027B   26030.92955187  .00000225  00000+0  13519-3 0  9993
2 17590  71.0045 356.0622 0005605 204.3082 155.7778 14.17162299  9999
SL-14 R/B               
1 17912U 87038B   26030.90872802  .00000689  00000+0  77234-4 0  9992
2 17912  82.5040 332.3884 0017813 291.6322  68.2997 14.85327716 73620
COSMOS 1844             
1 17973U 87041A   26030.63857612  .00000018  00000+0  34277-4 0  9991
2 17973  70.8984 114.4384 0028572  79.0026 281.4307 14.14534916998209
SL-14 R/B               
1 18153U 87055B   26030.95954812  .00000598  00000+0  66113-4 0  9999
2 18153  82.4983  24.5888 0021759 135.2046 225.0932 14.85581059 64339
COSMOS 1867             
1 18187U 87060A   26030.43649987 -.00000001  00000+0  37363-4 0  9994
2 18187  65.0103  53.8309 0014019 275.7799  84.1687 14.31496425 14469
SL-14 R/B               
1 18749U 88001B   26030.95229907  .00000546  00000+0  60339-4 0  9999
2 18749  82.5103 230.8573 0018264   8.0469 352.1037 14.85482066 36426
